1 10000U 00000A   26090.39631254  .00000000  00000-0 0.0000000 0  9990
2 10000   0.0000   0.0000 0001000   0.0000   0.0000  1.00273907    14
